OBJECT_NAME,OBJECT_ID,EPOCH,MEAN_MOTION,ECCENTRICITY,INCLINATION,RA_OF_ASC_NODE,ARG_OF_PERICENTER,MEAN_ANOMALY,EPHEMERIS_TYPE,CLASSIFICATION_TYPE,NORAD_CAT_ID,ELEMENT_SET_NO,REV_AT_EPOCH,BSTAR,MEAN_MOTION_DOT,MEAN_MOTION_DDOT
TIANMU-1 21,2023-208C,2026-06-26T04:15:48.117600,15.35227310,.0005659,97.4508,296.8882,284.2223,75.8392,0,U,58662,999,13894,.30307E-3,.1029E-3,0
TIANMU-1 22,2023-208D,2026-06-26T03:46:01.252416,15.31174991,.0002449,97.4504,293.4316,324.6794,35.4284,0,U,58663,999,13870,.28313E-3,.845E-4,0
TIANMU-1 15,2024-004A,2026-06-26T06:32:46.110624,15.26798294,.0005739,97.4665,3.4651,314.8530,45.2242,0,U,58700,999,13716,.23379E-3,.6086E-4,0
TIANMU-1 16,2024-004B,2026-06-26T04:44:48.048576,15.26834218,.0004948,97.4614,2.6173,334.4568,25.6425,0,U,58701,999,13715,.24123E-3,.6288E-4,0
TIANMU-1 17,2024-004C,2026-06-26T04:23:51.789984,15.26832991,.0004628,97.4642,3.0911,341.8459,18.2614,0,U,58702,999,13714,.24024E-3,.6261E-4,0
TIANMU-1 18,2024-004D,2026-06-26T05:22:21.619776,15.26883814,.0003387,97.4660,3.3923,327.3457,32.7572,0,U,58703,999,13715,.22243E-3,.5799E-4,0
INSAT-3DS,2024-033A,2026-06-26T02:40:43.027968,1.00270750,.0001449,0.0597,101.6372,343.2032,311.6553,0,U,58990,999,4715,0,-.145E-5,0
METEOR-M2 4,2024-039A,2026-06-26T04:29:35.090016,14.22430424,.0007775,98.7013,136.3722,136.7485,223.4304,0,U,59051,999,12054,.24819E-4,.12E-6,0
GOES 19,2024-119A,2026-06-26T03:34:38.794368,1.00271463,.0000516,0.0451,166.7323,335.1295,110.8843,0,U,60133,999,705,0,-.237E-5,0
MTG-S1,2025-143A,2026-06-24T17:46:37.650720,1.00400949,.00005853,0.5970,340.6178,288.6722,269.7793,0,U,64723,999,349,0,.23E-6,0
METOP-SGA1,2025-172A,2026-06-26T03:50:25.328832,14.19816449,.0008139,98.6642,236.6971,27.5405,332.6201,0,U,65159,999,4506,.39427E-4,.4E-6,0
FENGYUN 3H,2025-219A,2026-06-25T20:23:02.120640,14.19921827,.0001524,98.6769,117.4501,71.0909,289.0432,0,U,65815,999,3861,.37744E-4,.37E-6,0
