TIANMU-1 21             
1 58662U 23208C   26177.17764025  .00010290  00000+0  30307-3 0  9994
2 58662  97.4508 296.8882 0005659 284.2223  75.8392 15.35227310138941
TIANMU-1 22             
1 58663U 23208D   26177.15695894  .00008450  00000+0  28313-3 0  9999
2 58663  97.4504 293.4316 0002449 324.6794  35.4284 15.31174991138707
TIANMU-1 15             
1 58700U 24004A   26177.27275591  .00006086  00000+0  23379-3 0  9997
2 58700  97.4665   3.4651 0005739 314.8530  45.2242 15.26798294137166
TIANMU-1 16             
1 58701U 24004B   26177.19777834  .00006288  00000+0  24123-3 0  9998
2 58701  97.4614   2.6173 0004948 334.4568  25.6425 15.26834218137152
TIANMU-1 17             
1 58702U 24004C   26177.18323831  .00006261  00000+0  24024-3 0  9993
2 58702  97.4642   3.0911 0004628 341.8459  18.2614 15.26832991137148
TIANMU-1 18             
1 58703U 24004D   26177.22386134  .00005799  00000+0  22243-3 0  9990
2 58703  97.4660   3.3923 0003387 327.3457  32.7572 15.26883814137158
INSAT-3DS               
1 58990U 24033A   26177.11160912 -.00000145  00000+0  00000+0 0  9996
2 58990   0.0597 101.6372 0001449 343.2032 311.6553  1.00270750 47152
METEOR-M2 4             
1 59051U 24039A   26177.18721169  .00000012  00000+0  24819-4 0  9996
2 59051  98.7013 136.3722 0007775 136.7485 223.4304 14.22430424120540
GOES 19                 
1 60133U 24119A   26177.14906012 -.00000237  00000+0  00000+0 0  9997
2 60133   0.0451 166.7323 0000516 335.1295 110.8843  1.00271463  7054
MTG-S1                  
1 64723U 25143A   26175.74071355  .00000023  00000+0  00000+0 0  9993
2 64723   0.5970 340.6178 0000585 288.6722 269.7793  1.00400949  3493
METOP-SGA1              
1 65159U 25172A   26177.16001538  .00000040  00000+0  39427-4 0  9992
2 65159  98.6642 236.6971 0008139  27.5405 332.6201 14.19816449 45060
FENGYUN 3H              
1 65815U 25219A   26176.84933010  .00000037  00000+0  37744-4 0  9992
2 65815  98.6769 117.4501 0001524  71.0909 289.0432 14.19921827 38619
